NORAD_CAT_ID,OBJECT_NAME,OBJECT_TYPE,EPOCH,MEAN_MOTION,ECCENTRICITY,INCLINATION,RA_OF_ASC_NODE,ARG_OF_PERICENTER,MEAN_ANOMALY,BSTAR,MEAN_MOTION_DOT,MEAN_MOTION_DDOT,TLE_LINE0,TLE_LINE1,TLE_LINE2,SEMIMAJOR_AXIS,PERIOD,APOGEE,PERIGEE,DECAYED
49735.0,STARLINK-3113,PAYLOAD,2024-05-08 18:07:31,15.0882408,0.0001384,53.2169,286.4559,85.9016,274.2135,0.0016595,0.0002621,0.0,0 STARLINK-3113,1 49735U 21115M   24129.75522661  .00026210  00000-0  16595-2 0  9999,2 49735  53.2169 286.4559 0001384  85.9016 274.2135 15.08824080135368,6917.929,95.439,540.751,538.837,0.0
49735.0,STARLINK-3113,PAYLOAD,2024-05-09 10:01:23,15.08821368,0.0001576,53.2157,283.4801,105.2597,254.857,0.0018571,0.00029376,0.0,0 STARLINK-3113,1 49735U 21115M   24130.41763358  .00029376  00000-0  18571-2 0  9996,2 49735  53.2157 283.4801 0001576 105.2597 254.8570 15.08821368135469,6917.937,95.439,540.893,538.712,0.0
49735.0,STARLINK-3113,PAYLOAD,2024-05-09 14:47:33,15.08841722,0.0001547,53.2157,282.5885,93.3339,266.783,0.0018938,0.00029982,0.0,0 STARLINK-3113,1 49735U 21115M   24130.61635436  .00029982  00000-0  18938-2 0  9993,2 49735  53.2157 282.5885 0001547  93.3339 266.7830 15.08841722134387,6917.875,95.437,540.81,538.67,0.0
49735.0,STARLINK-3113,PAYLOAD,2024-05-09 16:22:56,15.08841433,0.000146,53.2161,282.2928,88.5816,271.5344,0.0019829,0.00031412,0.0,0 STARLINK-3113,1 49735U 21115M   24130.68259497  .00031412  00000-0  19829-2 0  9990,2 49735  53.2161 282.2928 0001460  88.5816 271.5344 15.08841433134391,6917.876,95.437,540.751,538.731,0.0
49735.0,STARLINK-3113,PAYLOAD,2024-05-10 13:02:56,15.08846023,0.0001356,53.2176,278.4284,74.6397,285.4745,0.0014827,0.00023392,0.0,0 STARLINK-3113,1 49735U 21115M   24131.54371390  .00023392  00000-0  14827-2 0  9994,2 49735  53.2176 278.4284 0001356  74.6397 285.4745 15.08846023135630,6917.862,95.437,540.665,538.789,0.0
49735.0,STARLINK-3113,PAYLOAD,2024-05-10 14:38:20,15.08848922,0.0001431,53.2175,278.1309,75.0902,285.0249,0.0017874,0.0002828,0.0,0 STARLINK-3113,1 49735U 21115M   24131.60995384  .00028280  00000-0  17874-2 0  9992,2 49735  53.2175 278.1309 0001431  75.0902 285.0249 15.08848922134538,6917.853,95.437,540.708,538.728,0.0
49735.0,STARLINK-3113,PAYLOAD,2024-05-10 19:24:29,15.08868258,0.0001553,53.2179,277.2386,75.9796,284.1369,0.0029646,0.00047247,0.0,0 STARLINK-3113,1 49735U 21115M   24131.80867241  .00047247  00000-0  29646-2 0  9998,2 49735  53.2179 277.2386 0001553  75.9796 284.1369 15.08868258134562,6917.794,95.436,540.733,538.585,0.0
49735.0,STARLINK-3113,PAYLOAD,2024-05-11 12:53:40,15.08971938,0.0001575,53.2174,273.9668,76.2599,283.8569,0.0048874,0.00078648,0.0,0 STARLINK-3113,1 49735U 21115M   24132.53727655  .00078648  00000-0  48874-2 0  9996,2 49735  53.2174 273.9668 0001575  76.2599 283.8569 15.08971938135785,6917.477,95.429,540.432,538.253,0.0
49735.0,STARLINK-3113,PAYLOAD,2024-05-11 16:04:25,15.08985809,0.0001453,53.2172,273.3717,71.1988,288.9162,0.0044997,0.00072349,0.0,0 STARLINK-3113,1 49735U 21115M   24132.66974450  .00072349  00000-0  44997-2 0  9991,2 49735  53.2172 273.3717 0001453  71.1988 288.9162 15.08985809134699,6917.435,95.428,540.305,538.295,0.0
49735.0,STARLINK-3113,PAYLOAD,2024-05-12 12:44:31,15.08740999,5.51e-05,53.2174,269.5064,57.1653,302.9392,0.00077357,0.00012012,0.0,0 STARLINK-3113,1 49735U 21115M   24133.53092450  .00012012  00000-0  77357-3 0  9997,2 49735  53.2174 269.5064 0000551  57.1653 302.9392 15.08740999135933,6918.183,95.444,540.429,539.667,0.0
49735.0,STARLINK-3113,PAYLOAD,2024-05-12 14:19:55,15.08635797,6.68e-05,53.2174,269.2086,109.7564,250.35,-0.0011458,-0.00018375,0.0,0 STARLINK-3113,1 49735U 21115M   24133.59716929 -.00018375  00000-0 -11458-2 0  9996,2 49735  53.2174 269.2086 0000668 109.7564 250.3500 15.08635797134832,6918.505,95.45,540.832,539.907,0.0
49735.0,STARLINK-3113,PAYLOAD,2024-05-12 15:55:19,15.0862972,9.56e-05,53.2176,268.9108,126.0705,234.0376,0.0003116,4.647e-05,0.0,0 STARLINK-3113,1 49735U 21115M   24133.66342164  .00004647  00000-0  31160-3 0  9998,2 49735  53.2176 268.9108 0000956 126.0705 234.0376 15.08629720135957,6918.523,95.451,541.05,539.727,0.0
49735.0,STARLINK-3113,PAYLOAD,2024-05-13 01:27:41,15.08714746,7.02e-05,53.2174,267.127,115.6576,244.4488,0.0029601,0.00046974,0.0,0 STARLINK-3113,1 49735U 21115M   24134.06089457  .00046974  00000-0  29601-2 0  9991,2 49735  53.2174 267.1270 0000702 115.6576 244.4488 15.08714746136015,6918.263,95.445,540.614,539.643,0.0
49735.0,STARLINK-3113,PAYLOAD,2024-05-13 12:35:23,15.08850348,0.0001351,53.2174,265.0474,88.8178,271.2969,0.0021832,0.00034639,0.0,0 STARLINK-3113,1 49735U 21115M   24134.52457254  .00034639  00000-0  21832-2 0  9999,2 49735  53.2174 265.0474 0001351  88.8178 271.2969 15.08850348136086,6917.849,95.437,540.648,538.779,0.0
49735.0,STARLINK-3113,PAYLOAD,2024-05-13 15:46:08,15.08874446,0.0001427,53.217,264.4538,87.6215,272.4941,0.00141,0.00022245,0.0,0 STARLINK-3113,1 49735U 21115M   24134.65704849  .00022245  00000-0  14100-2 0  9998,2 49735  53.2170 264.4538 0001427  87.6215 272.4941 15.08874446134995,6917.775,95.435,540.627,538.653,0.0
49735.0,STARLINK-3113,PAYLOAD,2024-05-14 12:26:07,15.08905721,0.000136,53.2165,260.5879,89.2556,270.8592,0.00094298,0.00014778,0.0,0 STARLINK-3113,1 49735U 21115M   24135.51813669  .00014778  00000-0  94298-3 0  9994,2 49735  53.2165 260.5879 0001360  89.2556 270.8592 15.08905721135127,6917.68,95.433,540.485,538.604,0.0
49735.0,STARLINK-3113,PAYLOAD,2024-05-15 01:09:09,15.08948522,0.0001758,53.2162,258.2016,21.0468,339.0596,0.0015637,0.0002476,0.0,0 STARLINK-3113,1 49735U 21115M   24136.04802464  .00024760  00000-0  15637-2 0  9995,2 49735  53.2162 258.2016 0001758  21.0468 339.0596 15.08948522136318,6917.549,95.431,540.63,538.198,0.0
49735.0,STARLINK-3113,PAYLOAD,2024-05-15 12:16:52,15.0884269,0.0001457,53.2152,256.1254,61.974,298.1399,-0.0012243,-0.00019721,0.0,0 STARLINK-3113,1 49735U 21115M   24136.51171320 -.00019721  00000-0 -12243-2 0  9990,2 49735  53.2152 256.1254 0001457  61.9740 298.1399 15.08842690136382,6917.872,95.437,540.745,538.729,0.0
49735.0,STARLINK-3113,PAYLOAD,2024-05-15 13:52:15,15.08823977,0.0001614,53.2157,255.8282,55.9141,304.2004,0.00085896,0.00013403,0.0,0 STARLINK-3113,1 49735U 21115M   24136.57795814  .00013403  00000-0  85896-3 0  9990,2 49735  53.2157 255.8282 0001614  55.9141 304.2004 15.08823977135284,6917.929,95.439,540.911,538.678,0.0
49735.0,STARLINK-3113,PAYLOAD,2024-05-15 17:03:02,15.08830039,0.0001714,53.2168,255.2347,57.9467,302.1691,0.002439,0.00038732,0.0,0 STARLINK-3113,1 49735U 21115M   24136.71043992  .00038732  00000-0  24390-2 0  9992,2 49735  53.2168 255.2347 0001714  57.9467 302.1691 15.08830039135305,6917.911,95.438,540.962,538.59,0.0
49735.0,STARLINK-3113,PAYLOAD,2024-05-16 12:07:39,15.08856939,0.000149,53.2167,251.6644,69.2373,290.8779,0.0013161,0.00020729,0.0,0 STARLINK-3113,1 49735U 21115M   24137.50531874  .00020729  00000-0  13161-2 0  9992,2 49735  53.2167 251.6644 0001490  69.2373 290.8779 15.08856939136530,6917.829,95.436,540.724,538.663,0.0
49735.0,STARLINK-3113,PAYLOAD,2024-05-17 13:33:50,15.08780546,0.0001241,53.2164,246.9046,103.3282,256.7848,0.00093052,0.00014528,0.0,0 STARLINK-3113,1 49735U 21115M   24138.56516661  .00014528  00000-0  93052-3 0  9994,2 49735  53.2164 246.9046 0001241 103.3282 256.7848 15.08780546136698,6918.062,95.441,540.786,539.069,0.0
49735.0,STARLINK-3113,PAYLOAD,2024-05-18 00:41:32,15.08825259,0.000214,53.2163,244.8227,105.152,254.9709,0.001514,0.0002388,0.0,0 STARLINK-3113,1 49735U 21115M   24139.02885334  .00023880  00000-0  15140-2 0  9994,2 49735  53.2163 244.8227 0002140 105.1520 254.9709 15.08825259136764,6917.925,95.438,541.271,538.31,0.0
49735.0,STARLINK-3113,PAYLOAD,2024-05-18 13:24:37,15.08865063,0.00019,53.2147,242.4446,103.9279,256.1924,0.0017713,0.00028034,0.0,0 STARLINK-3113,1 49735U 21115M   24139.55876846  .00028034  00000-0  17713-2 0  9994,2 49735  53.2147 242.4446 0001900 103.9279 256.1924 15.08865063136842,6917.804,95.436,540.983,538.354,0.0
49735.0,STARLINK-3113,PAYLOAD,2024-05-19 13:15:24,15.08814424,8.52e-05,53.2164,237.9856,91.7852,268.3238,0.0011471,0.00018002,0.0,0 STARLINK-3113,1 49735U 21115M   24140.55237018  .00018002  00000-0  11471-2 0  9997,2 49735  53.2164 237.9856 0000852  91.7852 268.3238 15.08814424136995,6917.959,95.439,540.413,539.234,0.0
49735.0,STARLINK-3113,PAYLOAD,2024-05-20 13:06:12,15.08861463,0.0001249,53.2175,233.5252,107.5113,252.6015,0.0017275,0.00027328,0.0,0 STARLINK-3113,1 49735U 21115M   24141.54597394  .00027328  00000-0  17275-2 0  9992,2 49735  53.2175 233.5252 0001249 107.5113 252.6015 15.08861463136035,6917.815,95.436,540.544,538.816,0.0
49735.0,STARLINK-3113,PAYLOAD,2024-05-21 06:35:26,15.08864322,0.0001262,53.2176,230.2547,96.2331,263.8805,0.0011415,0.00017938,0.0,0 STARLINK-3113,1 49735U 21115M   24142.27460967  .00017938  00000-0  11415-2 0  9994,2 49735  53.2176 230.2547 0001262  96.2331 263.8805 15.08864322137251,6917.806,95.436,540.544,538.798,0.0
49735.0,STARLINK-3113,PAYLOAD,2024-05-22 11:12:23,15.08837884,0.0001097,53.217,224.906,85.9032,274.2086,0.00027707,4.124e-05,0.0,0 STARLINK-3113,1 49735U 21115M   24143.46693586  .00004124  00000-0  27707-3 0  9996,2 49735  53.2170 224.9060 0001097  85.9032 274.2086 15.08837884137434,6917.887,95.438,540.511,538.993,0.0
49735.0,STARLINK-3113,PAYLOAD,2024-05-23 12:38:33,15.08844451,0.0001213,53.2167,220.1466,92.1836,267.9295,0.00027805,4.141e-05,0.0,0 STARLINK-3113,1 49735U 21115M   24144.52677544  .00004141  00000-0  27805-3 0  9998,2 49735  53.2167 220.1466 0001213  92.1836 267.9295 15.08844451137596,6917.867,95.437,540.571,538.893,0.0
49735.0,STARLINK-3113,PAYLOAD,2024-05-24 12:29:19,15.08855349,0.0001331,53.2165,215.6848,83.5443,276.57,0.00036902,5.592e-05,0.0,0 STARLINK-3113,1 49735U 21115M   24145.52037002  .00005592  00000-0  36902-3 0  9997,2 49735  53.2165 215.6848 0001331  83.5443 276.5700 15.08855349136635,6917.833,95.437,540.619,538.778,0.0
